[{"OBJECT_NAME":"JILIN-1 GAOFEN 03D47","OBJECT_ID":"2022-167L","EPOCH":"2026-03-09T22:56:46.924224","MEAN_MOTION":15.31686941,"ECCENTRICITY":0.00089304,"INCLINATION":97.6835,"RA_OF_ASC_NODE":234.6581,"ARG_OF_PERICENTER":110.4031,"MEAN_ANOMALY":249.8169,"EPHEMERIS_TYPE":0,"CLASSIFICATION_TYPE":"U","NORAD_CAT_ID":54692,"ELEMENT_SET_NO":999,"REV_AT_EPOCH":18014,"BSTAR":0.00047294748,"MEAN_MOTION_DOT":0.00014417,"MEAN_MOTION_DDOT":0},{"OBJECT_NAME":"STARLINK-35500","OBJECT_ID":"2025-236H","EPOCH":"2026-03-09T11:32:10.345056","MEAN_MOTION":15.30164158,"ECCENTRICITY":0.00011602,"INCLINATION":53.1593,"RA_OF_ASC_NODE":104.7689,"ARG_OF_PERICENTER":74.6283,"MEAN_ANOMALY":285.4846,"EPHEMERIS_TYPE":0,"CLASSIFICATION_TYPE":"U","NORAD_CAT_ID":66093,"ELEMENT_SET_NO":999,"REV_AT_EPOCH":2291,"BSTAR":0.0010640103,"MEAN_MOTION_DOT":0.00031251,"MEAN_MOTION_DDOT":0}]
